     3.03           N                   C                   RINEX VERSION / TYPE
Convert 2.6.7       NovAtel             20220606 075817 UTC PGM / RUN BY / DATE 
                                                            COMMENT             
                                                            END OF HEADER       
C16 2021 12 03 06 00 00  .106780789793D-04  .135615962904D-10  .000000000000D+00
      .100000000000D+01 -.132312500000D+03  .175793036771D-08 -.211025792933D+01
     -.446802005172D-05  .389459822327D-02  .998331233859D-05  .649341450882D+04
      .453600000000D+06  .982545316219D-07  .192604241912D+01  .759027898312D-07
      .960125763332D+00 -.625156250000D+02 -.245850297996D+01 -.202222709102D-08
     -.120433587971D-08                     .830000000000D+03                   
      .200000000000D+01  .000000000000D+00 -.270000000000D-08  .430000000000D-08
      .457200000000D+06  .000000000000D+00                                      
C19 2021 12 03 06 00 00  .927562010475D-03 -.498534546978D-11  .000000000000D+00
      .100000000000D+01  .288281250000D+02  .401731019424D-08  .300009588444D+01
      .138813629746D-05  .537347979844D-03  .705430284142D-05  .528261162567D+04
      .453600000000D+06  .279396772385D-08  .892676016179D+00 -.242143869400D-07
      .967468109673D+00  .222234375000D+03 -.121526298611D+01 -.672492297718D-08
      .570738059245D-09                     .830000000000D+03                   
      .200000000000D+01  .000000000000D+00  .122000000000D-07  .122000000000D-07
      .457200000000D+06  .100000000000D+01                                      
C20 2021 12 03 06 00 00 -.792366103269D-03 -.173994152419D-11  .000000000000D+00
      .100000000000D+01  .301562500000D+02  .407731269358D-08  .295912660030D+01
      .137370079756D-05  .444849603809D-03  .696536153555D-05  .528261328125D+04
      .453600000000D+06  .526197254658D-07  .893300745105D+00  .745058059692D-08
      .967462196558D+00  .225890625000D+03 -.419672118011D+00 -.678313968785D-08
      .507878298027D-09                     .830000000000D+03                   
      .200000000000D+01  .000000000000D+00  .230000000000D-07  .230000000000D-07
      .457200000000D+06  .100000000000D+01                                      
C21 2021 12 01 09 00 00 -.939533929341D-03 -.388844512145D-11  .000000000000D+00
      .100000000000D+01 -.574218750000D+02  .357764902344D-08 -.244948520621D+01
     -.300211831927D-05  .357082928531D-03  .867992639542D-05  .528262899971D+04
      .291600000000D+06 -.256113708019D-07  .102056647101D+01 -.139698386192D-08
      .966649431457D+00  .187125000000D+03 -.660649104241D+00 -.654777274102D-08
      .216080429189D-09                     .829000000000D+03                   
      .200000000000D+01  .000000000000D+00  .141000000000D-07  .141000000000D-07
      .457200000000D+06  .100000000000D+01                                      
C22 2021 12 03 06 00 00 -.969777232967D-03  .384137166520D-11  .000000000000D+00
      .100000000000D+01  .277500000000D+02  .407659837811D-08  .503576359565D+00
      .134203583002D-05  .413952395320D-03  .714370980859D-05  .528261393929D+04
      .453600000000D+06  .162981450558D-07  .894783162419D+00  .325962901115D-08
      .966751878148D+00  .218578125000D+03  .489040610962D+00 -.677385358676D-08
      .589310261424D-09                     .830000000000D+03                   
      .200000000000D+01  .000000000000D+00  .166000000000D-07  .166000000000D-07
      .457200000000D+06  .100000000000D+01                                      
C23 2021 12 03 06 00 00 -.963172642514D-03  .729194482574D-12  .000000000000D+00
      .100000000000D+01  .116281250000D+03  .359622122562D-08  .248801134546D+01
      .569317489862D-05  .241869362071D-03  .126017257571D-04  .528263138390D+04
      .453600000000D+06  .139698386192D-07  .299681665262D+01 -.135041773319D-07
      .948857781655D+00  .983437500000D+02 -.420175571028D+00 -.659491756193D-08
     -.225009372544D-09                     .830000000000D+03                   
      .200000000000D+01  .000000000000D+00  .250000000000D-07  .250000000000D-07
      .457200000000D+06  .100000000000D+01                                      
C24 2021 12 04 02 00 00 -.959426397458D-03  .430500080029D-11  .000000000000D+00
      .100000000000D+01  .767343750000D+02  .383087385699D-08  .633339090601D-01
      .384822487831D-05  .662772217765D-03  .112894922495D-04  .528262097740D+04
      .525600000000D+06  .386498868465D-07 -.303796764727D+01  .284053385258D-07
      .948998123775D+00  .130140625000D+03  .326993538125D+00 -.662777607348D-08
     -.175721605224D-09                     .828000000000D+03                   
      .200000000000D+01  .000000000000D+00  .700000000000D-08  .700000000000D-08
      .457200000000D+06  .100000000000D+01                                      
C25 2021 12 04 06 00 00 -.818618456833D-03  .571187541709D-11  .000000000000D+00
      .100000000000D+01  .425312500000D+02  .421446126351D-08  .140317397953D+01
      .199628993869D-05  .521439011209D-03  .651367008686D-05  .528262135696D+04
      .540000000000D+06  .279396772385D-07  .309557845550D+01  .367872416973D-07
      .950097165852D+00  .221953125000D+03  .334414833766D+00 -.701564937281D-08
      .567880797372D-10                     .829000000000D+03                   
      .200000000000D+01  .000000000000D+00  .900000000000D-09  .900000000000D-09
      .457200000000D+06  .100000000000D+01                                      
C26 2021 12 01 09 00 00  .817354186438D-03 -.544808642644D-11  .000000000000D+00
      .100000000000D+01  .169843750000D+02  .396766526918D-08  .738035745854D+00
      .958330929279D-06  .811239005998D-03  .804755836725D-05  .528262080002D+04
      .291600000000D+06 -.349245965481D-07  .309786255046D+01  .838190317154D-08
      .950208233518D+00  .192046875000D+03  .336585529167D+00 -.673099465866D-08
     -.382158775590D-09                     .829000000000D+03                   
      .200000000000D+01  .000000000000D+00 -.490000000000D-08 -.490000000000D-08
      .457200000000D+06  .100000000000D+01                                      
C27 2021 12 04 02 00 00  .632236362435D-03  .601829697189D-11  .000000000000D+00
      .100000000000D+01 -.122031250000D+03  .389194782953D-08  .105649116595D+01
     -.604148954153D-05  .493765925057D-03  .170664861798D-05  .528262112045D+04
      .525600000000D+06 -.703148543835D-07 -.933175860143D+00  .535510480404D-07
      .966102553181D+00  .327515625000D+03  .110319561854D+01 -.710458164863D-08
     -.304298389535D-09                     .828000000000D+03                   
      .200000000000D+01  .000000000000D+00 -.450000000000D-08 -.450000000000D-08
      .457200000000D+06  .100000000000D+01                                      
C28 2021 12 03 06 00 00  .442727468908D-05  .450040005262D-11  .000000000000D+00
      .400000000000D+01 -.149265625000D+03  .398088010535D-08  .216303799188D+01
     -.734208151698D-05  .227224663831D-03  .211456790566D-05  .528263607025D+04
      .453600000000D+06 -.358559191227D-07 -.118210757461D+01 -.125728547573D-07
      .965843979484D+00  .322468750000D+03 -.222647679363D+01 -.715779815102D-08
     -.318227541169D-09                     .830000000000D+03                   
      .200000000000D+01  .000000000000D+00 -.440000000000D-08 -.440000000000D-08
      .457200000000D+06  .400000000000D+01                                      
C29 2021 12 01 09 00 00  .478550908156D-03  .506883424123D-11  .000000000000D+00
      .100000000000D+01  .502968750000D+02  .390730561211D-08 -.145797106964D+01
      .246195122600D-05  .798585824668D-04  .183144584298D-05  .528262104797D+04
      .291600000000D+06 -.260770320892D-07 -.109495358782D+01 -.223517417908D-07
      .964718831634D+00  .329703125000D+03  .200621099111D+01 -.707815197630D-08
      .123576576032D-09                     .829000000000D+03                   
      .200000000000D+01  .000000000000D+00 -.200000000000D-09 -.200000000000D-09
      .457200000000D+06  .100000000000D+01                                      
C30 2021 12 02 09 00 00  .486538629048D-03  .937916411203D-12  .000000000000D+00
      .100000000000D+01 -.149546875000D+03  .391016287398D-08  .148965776405D+00
     -.730296596885D-05  .338649377227D-03  .460771843791D-05  .528261716080D+04
      .378000000000D+06  .386498868465D-07 -.970319938269D+00  .181607902050D-07
      .964741404460D+00  .273609375000D+03  .113389405181D+00 -.702957852445D-08
     -.306441335940D-09                     .828000000000D+03                   
      .200000000000D+01  .000000000000D+00 -.980000000000D-08 -.980000000000D-08
      .457200000000D+06  .100000000000D+01                                      
C32 2021 12 03 06 00 00 -.958311138675D-03  .166799907220D-11  .000000000000D+00
      .100000000000D+01  .325156250000D+02  .418660296025D-08 -.152128741198D+01
      .154413282871D-05  .216437270865D-03  .650668516755D-05  .528261230087D+04
      .453600000000D+06  .931322574615D-08  .887136492544D+00  .149011611938D-07
      .966161671163D+00  .232468750000D+03 -.140628247418D+01 -.689921595147D-08
      .522521765129D-09                     .830000000000D+03                   
      .200000000000D+01  .000000000000D+00 -.930000000000D-08 -.930000000000D-08
      .457200000000D+06  .100000000000D+01                                      
